{"type": "FeatureCollection", "features": [{"type": "Feature", "properties": {"norad_id": 28054, "name": "DMSP 5D-3 F16 (USA 172)", "group": "weather", "lat": -38.22591030597567, "lon": -176.21320809702087, "alt_km": 849.9114439908544, "timestamp": "2025-12-19T10:50:00.834159+00:00", "meta": {"OBJECT_NAME": "DMSP 5D-3 F16 (USA 172)", "OBJECT_ID": "2003-048A", "EPOCH": "2025-12-18T23:41:36.424896", "MEAN_MOTION": 14.14426466, "ECCENTRICITY": 0.00063286, "INCLINATION": 99.004, "RA_OF_ASC_NODE": 10.4933, "ARG_OF_PERICENTER": 301.0523, "MEAN_ANOMALY": 75.4963, "EPHEMERIS_TYPE": 0, "CLASSIFICATION_TYPE": "U", "NORAD_CAT_ID": 28054, "ELEMENT_SET_NO": 999, "REV_AT_EPOCH": 14401, "BSTAR": 7.6321782e-05, "MEAN_MOTION_DOT": 1.01e-06, "MEAN_MOTION_DDOT": 0}, "tle": {"line1": "1 28054U 03048A   25352.98722714  .00000101  00000+0  76322-4 0  9996", "line2": "2 28054  99.0040  10.4933 0006328 301.0523  75.4963 14.14426466144018"}}, "geometry": {"type": "Point", "coordinates": [-176.21320809702087, -38.22591030597567]}}, {"type": "Feature", "properties": {"norad_id": 28912, "name": "METEOSAT-9 (MSG-2)", "group": "weather", "lat": -7.826587542390344, "lon": -63.642244686794974, "alt_km": 35775.5855192966, "timestamp": "2025-12-19T10:50:00.834209+00:00", "meta": {"OBJECT_NAME": "METEOSAT-9 (MSG-2)", "OBJECT_ID": "2005-049B", "EPOCH": "2025-12-17T18:40:44.289696", "MEAN_MOTION": 1.00279199, "ECCENTRICITY": 0.00033756, "INCLINATION": 8.9502, "RA_OF_ASC_NODE": 55.9296, "ARG_OF_PERICENTER": 190.8164, "MEAN_ANOMALY": 165.8697, "EPHEMERIS_TYPE": 0, "CLASSIFICATION_TYPE": "U", "NORAD_CAT_ID": 28912, "ELEMENT_SET_NO": 999, "REV_AT_EPOCH": 517, "BSTAR": 0, "MEAN_MOTION_DOT": 1.4e-06, "MEAN_MOTION_DDOT": 0}, "tle": {"line1": "1 28912U 05049B   25351.77829039  .00000140  00000+0  00000+0 0  9994", "line2": "2 28912   8.9502  55.9296 0003375 190.8164 165.8697  1.00279199  5174"}}, "geometry": {"type": "Point", "coordinates": [-63.642244686794974, -7.826587542390344]}}, {"type": "Feature", "properties": {"norad_id": 29522, "name": "DMSP 5D-3 F17 (USA 191)", "group": "weather", "lat": 8.889697858645633, "lon": -179.92068522373668, "alt_km": 838.4646343739432, "timestamp": "2025-12-19T10:50:00.834227+00:00", "meta": {"OBJECT_NAME": "DMSP 5D-3 F17 (USA 191)", "OBJECT_ID": "2006-050A", "EPOCH": "2025-12-18T22:08:52.314144", "MEAN_MOTION": 14.14922229, "ECCENTRICITY": 0.00096428, "INCLINATION": 98.739, "RA_OF_ASC_NODE": 358.1832, "ARG_OF_PERICENTER": 206.1912, "MEAN_ANOMALY": 153.8775, "EPHEMERIS_TYPE": 0, "CLASSIFICATION_TYPE": "U", "NORAD_CAT_ID": 29522, "ELEMENT_SET_NO": 999, "REV_AT_EPOCH": 98692, "BSTAR": 9.6738214e-05, "MEAN_MOTION_DOT": 1.44e-06, "MEAN_MOTION_DDOT": 0}, "tle": {"line1": "1 29522U 06050A   25352.92282771  .00000144  00000+0  96738-4 0  9991", "line2": "2 29522  98.7390 358.1832 0009642 206.1912 153.8775 14.14922229986926"}}, "geometry": {"type": "Point", "coordinates": [-179.92068522373668, 8.889697858645633]}}, {"type": "Feature", "properties": {"norad_id": 32958, "name": "FENGYUN 3A", "group": "weather", "lat": -4.189298366323729, "lon": -66.52276786070033, "alt_km": 828.2297914137353, "timestamp": "2025-12-19T10:50:00.834242+00:00", "meta": {"OBJECT_NAME": "FENGYUN 3A", "OBJECT_ID": "2008-026A", "EPOCH": "2025-12-18T19:37:42.374784", "MEAN_MOTION": 14.19516502, "ECCENTRICITY": 0.00077003, "INCLINATION": 98.6703, "RA_OF_ASC_NODE": 292.2167, "ARG_OF_PERICENTER": 291.0603, "MEAN_ANOMALY": 68.975, "EPHEMERIS_TYPE": 0, "CLASSIFICATION_TYPE": "U", "NORAD_CAT_ID": 32958, "ELEMENT_SET_NO": 999, "REV_AT_EPOCH": 90981, "BSTAR": 5.5044233e-05, "MEAN_MOTION_DOT": 7.3e-07, "MEAN_MOTION_DDOT": 0}, "tle": {"line1": "1 32958U 08026A   25352.81785156  .00000073  00000+0  55044-4 0  9992", "line2": "2 32958  98.6703 292.2167 0007700 291.0603  68.9750 14.19516502909812"}}, "geometry": {"type": "Point", "coordinates": [-66.52276786070033, -4.189298366323729]}}, {"type": "Feature", "properties": {"norad_id": 35491, "name": "GOES 14", "group": "weather", "lat": 0.9708410345286679, "lon": 136.79189235473268, "alt_km": 35836.415397529854, "timestamp": "2025-12-19T10:50:00.834257+00:00", "meta": {"OBJECT_NAME": "GOES 14", "OBJECT_ID": "2009-033A", "EPOCH": "2025-12-18T23:01:36.198336", "MEAN_MOTION": 1.00096794, "ECCENTRICITY": 5.139e-05, "INCLINATION": 1.2191, "RA_OF_ASC_NODE": 85.3443, "ARG_OF_PERICENTER": 179.5584, "MEAN_ANOMALY": 54.6314, "EPHEMERIS_TYPE": 0, "CLASSIFICATION_TYPE": "U", "NORAD_CAT_ID": 35491, "ELEMENT_SET_NO": 999, "REV_AT_EPOCH": 478, "BSTAR": 0, "MEAN_MOTION_DOT": 1.6e-07, "MEAN_MOTION_DDOT": 0}, "tle": {"line1": "1 35491U 09033A   25352.95944674  .00000016  00000+0  00000+0 0  9997", "line2": "2 35491   1.2191  85.3443 0000513 179.5584  54.6314  1.00096794  4781"}}, "geometry": {"type": "Point", "coordinates": [136.79189235473268, 0.9708410345286679]}}, {"type": "Feature", "properties": {"norad_id": 35951, "name": "DMSP 5D-3 F18 (USA 210)", "group": "weather", "lat": 34.23244618052764, "lon": -36.29046220935347, "alt_km": 832.3343194087165, "timestamp": "2025-12-19T10:50:00.834269+00:00", "meta": {"OBJECT_NAME": "DMSP 5D-3 F18 (USA 210)", "OBJECT_ID": "2009-057A", "EPOCH": "2025-12-18T22:47:20.689728", "MEAN_MOTION": 14.14773291, "ECCENTRICITY": 0.00119264, "INCLINATION": 98.8839, "RA_OF_ASC_NODE": 329.3194, "ARG_OF_PERICENTER": 46.414, "MEAN_ANOMALY": 313.8021, "EPHEMERIS_TYPE": 0, "CLASSIFICATION_TYPE": "U", "NORAD_CAT_ID": 35951, "ELEMENT_SET_NO": 999, "REV_AT_EPOCH": 83410, "BSTAR": 0.00014271477, "MEAN_MOTION_DOT": 2.31e-06, "MEAN_MOTION_DDOT": 0}, "tle": {"line1": "1 35951U 09057A   25352.94954502  .00000231  00000+0  14271-3 0  9992", "line2": "2 35951  98.8839 329.3194 0011926  46.4140 313.8021 14.14773291834102"}}, "geometry": {"type": "Point", "coordinates": [-36.29046220935347, 34.23244618052764]}}, {"type": "Feature", "properties": {"norad_id": 36411, "name": "EWS-G2 (GOES 15)", "group": "weather", "lat": -0.6157214287416021, "lon": -47.79262628035384, "alt_km": 35771.258946572714, "timestamp": "2025-12-19T10:50:00.834282+00:00", "meta": {"OBJECT_NAME": "EWS-G2 (GOES 15)", "OBJECT_ID": "2010-008A", "EPOCH": "2025-12-18T20:26:06.090432", "MEAN_MOTION": 1.00270766, "ECCENTRICITY": 0.00054722, "INCLINATION": 0.8281, "RA_OF_ASC_NODE": 86.0897, "ARG_OF_PERICENTER": 176.8325, "MEAN_ANOMALY": 192.6821, "EPHEMERIS_TYPE": 0, "CLASSIFICATION_TYPE": "U", "NORAD_CAT_ID": 36411, "ELEMENT_SET_NO": 999, "REV_AT_EPOCH": 5783, "BSTAR": 0, "MEAN_MOTION_DOT": 6.2e-07, "MEAN_MOTION_DDOT": 0}, "tle": {"line1": "1 36411U 10008A   25352.85145938  .00000062  00000+0  00000+0 0  9990", "line2": "2 36411   0.8281  86.0897 0005472 176.8325 192.6821  1.00270766 57835"}}, "geometry": {"type": "Point", "coordinates": [-47.79262628035384, -0.6157214287416021]}}, {"type": "Feature", "properties": {"norad_id": 36744, "name": "COMS 1", "group": "weather", "lat": -3.7219207242178673, "lon": 19.055081329230784, "alt_km": 35786.75796936888, "timestamp": "2025-12-19T10:50:00.834296+00:00", "meta": {"OBJECT_NAME": "COMS 1", "OBJECT_ID": "2010-032A", "EPOCH": "2025-12-18T17:19:41.001312", "MEAN_MOTION": 1.00273665, "ECCENTRICITY": 7.115e-05, "INCLINATION": 4.3542, "RA_OF_ASC_NODE": 77.9328, "ARG_OF_PERICENTER": 199.5374, "MEAN_ANOMALY": 198.2019, "EPHEMERIS_TYPE": 0, "CLASSIFICATION_TYPE": "U", "NORAD_CAT_ID": 36744, "ELEMENT_SET_NO": 999, "REV_AT_EPOCH": 4928, "BSTAR": 0, "MEAN_MOTION_DOT": -3.23e-06, "MEAN_MOTION_DDOT": 0}, "tle": {"line1": "1 36744U 10032A   25352.72200233 -.00000323  00000+0  00000+0 0  9993", "line2": "2 36744   4.3542  77.9328 0000711 199.5374 198.2019  1.00273665 49280"}}, "geometry": {"type": "Point", "coordinates": [19.055081329230784, -3.7219207242178673]}}, {"type": "Feature", "properties": {"norad_id": 37214, "name": "FENGYUN 3B", "group": "weather", "lat": -0.12101531475849897, "lon": 33.49492914327454, "alt_km": 831.3064812696321, "timestamp": "2025-12-19T10:50:00.834309+00:00", "meta": {"OBJECT_NAME": "FENGYUN 3B", "OBJECT_ID": "2010-059A", "EPOCH": "2025-12-18T23:30:17.082432", "MEAN_MOTION": 14.14791876, "ECCENTRICITY": 0.00217456, "INCLINATION": 98.9905, "RA_OF_ASC_NODE": 33.0005, "ARG_OF_PERICENTER": 339.928, "MEAN_ANOMALY": 137.1243, "EPHEMERIS_TYPE": 0, "CLASSIFICATION_TYPE": "U", "NORAD_CAT_ID": 37214, "ELEMENT_SET_NO": 999, "REV_AT_EPOCH": 78194, "BSTAR": 0.00013718237, "MEAN_MOTION_DOT": 2.2e-06, "MEAN_MOTION_DDOT": 0}, "tle": {"line1": "1 37214U 10059A   25352.97936438  .00000220  00000+0  13718-3 0  9994", "line2": "2 37214  98.9905  33.0005 0021745 339.9280 137.1243 14.14791876781941"}}, "geometry": {"type": "Point", "coordinates": [33.49492914327454, -0.12101531475849897]}}, {"type": "Feature", "properties": {"norad_id": 37849, "name": "SUOMI NPP", "group": "weather", "lat": -44.83952440511613, "lon": -60.42909309270984, "alt_km": 835.1889756426153, "timestamp": "2025-12-19T10:50:00.834321+00:00", "meta": {"OBJECT_NAME": "SUOMI NPP", "OBJECT_ID": "2011-061A", "EPOCH": "2025-12-17T23:31:21.474624", "MEAN_MOTION": 14.19515682, "ECCENTRICITY": 0.00023932, "INCLINATION": 98.7779, "RA_OF_ASC_NODE": 289.2746, "ARG_OF_PERICENTER": 111.1248, "MEAN_ANOMALY": 249.0184, "EPHEMERIS_TYPE": 0, "CLASSIFICATION_TYPE": "U", "NORAD_CAT_ID": 37849, "ELEMENT_SET_NO": 999, "REV_AT_EPOCH": 73273, "BSTAR": 4.8615036e-05, "MEAN_MOTION_DOT": 5.8e-07, "MEAN_MOTION_DDOT": 0}, "tle": {"line1": "1 37849U 11061A   25351.98010966  .00000058  00000+0  48615-4 0  9995", "line2": "2 37849  98.7779 289.2746 0002393 111.1248 249.0184 14.19515682732735"}}, "geometry": {"type": "Point", "coordinates": [-60.42909309270984, -44.83952440511613]}}]}